CTC2_L_00537001-01
1 10000U 26007SO  26075.70048611  .00000000  00000+0  00000-0 0  9992
2 10000  97.7000   0.0000 0000000   0.0000   0.0000 14.98995063    11
CTC2_L_00537001-02
1 10001U 22001EN  26075.70048611  .00000000  00000+0  00000-0 0  9993
2 10001  97.7000   0.0000 0000000   0.0000  45.0000 14.98995063    11
CTC2_L_00537001-03
1 10002U 22200WF  26075.70048611  .00000000  00000+0  00000-0 0  9995
2 10002  97.7000   0.0000 0000000   0.0000  90.0000 14.98995063    12
CTC2_L_00537001-04
1 10003U 23418OD  26075.70048611  .00000000  00000+0  00000-0 0  9998
2 10003  97.7000   0.0000 0000000   0.0000 135.0000 14.98995063    13
CTC2_L_00537001-05
1 10004U 25581SX  26075.70048611  .00000000  00000+0  00000-0 0  9992
2 10004  97.7000   0.0000 0000000   0.0000 180.0000 14.98995063    14
CTC2_L_00537001-06
1 10005U 22430GI  26075.70048611  .00000000  00000+0  00000-0 0  9993
2 10005  97.7000   0.0000 0000000   0.0000 225.0000 14.98995063    15
CTC2_L_00537001-07
1 10006U 24535TG  26075.70048611  .00000000  00000+0  00000-0 0  9992
2 10006  97.7000   0.0000 0000000   0.0000 270.0000 14.98995063    16
CTC2_L_00537001-08
1 10007U 25367QO  26075.70048611  .00000000  00000+0  00000-0 0  9997
2 10007  97.7000   0.0000 0000000   0.0000 315.0000 14.98995063    17
CTC2_L_00537002-01
1 10008U 25816FM  26075.70048611  .00000000  00000+0  00000-0 0  9997
2 10008  97.7000  12.0000 0000000   0.0000   6.0000 14.98995063    18
CTC2_L_00537002-02
1 10009U 24284EX  26075.70048611  .00000000  00000+0  00000-0 0  9996
2 10009  97.7000  12.0000 0000000   0.0000  51.0000 14.98995063    19
CTC2_L_00537002-03
1 10010U 25874MP  26075.70048611  .00000000  00000+0  00000-0 0  9994
2 10010  97.7000  12.0000 0000000   0.0000  96.0000 14.98995063    10
CTC2_L_00537002-04
1 10011U 23884MQ  26075.70048611  .00000000  00000+0  00000-0 0  9994
2 10011  97.7000  12.0000 0000000   0.0000 141.0000 14.98995063    12
CTC2_L_00537002-05
1 10012U 25932DX  26075.70048611  .00000000  00000+0  00000-0 0  9991
2 10012  97.7000  12.0000 0000000   0.0000 186.0000 14.98995063    12
CTC2_L_00537002-06
1 10013U 22928VB  26075.70048611  .00000000  00000+0  00000-0 0  9994
2 10013  97.7000  12.0000 0000000   0.0000 231.0000 14.98995063    14
CTC2_L_00537002-07
1 10014U 23195AY  26075.70048611  .00000000  00000+0  00000-0 0  9992
2 10014  97.7000  12.0000 0000000   0.0000 276.0000 14.98995063    14
CTC2_L_00537002-08
1 10015U 26055DR  26075.70048611  .00000000  00000+0  00000-0 0  9991
2 10015  97.7000  12.0000 0000000   0.0000 321.0000 14.98995063    16
CTC2_L_00537003-01
1 10016U 22181QK  26075.70048611  .00000000  00000+0  00000-0 0  9998
2 10016  97.7000  24.0000 0000000   0.0000  12.0000 14.98995063    17
CTC2_L_00537003-02
1 10017U 23294GY  26075.70048611  .00000000  00000+0  00000-0 0  9995
2 10017  97.7000  24.0000 0000000   0.0000  57.0000 14.98995063    17
CTC2_L_00537003-03
1 10018U 25456WA  26075.70048611  .00000000  00000+0  00000-0 0  9998
2 10018  97.7000  24.0000 0000000   0.0000 102.0000 14.98995063    19
CTC2_L_00537003-04
1 10019U 25416OT  26075.70048611  .00000000  00000+0  00000-0 0  9995
2 10019  97.7000  24.0000 0000000   0.0000 147.0000 14.98995063    19
CTC2_L_00537003-05
1 10020U 25981PV  26075.70048611  .00000000  00000+0  00000-0 0  9994
2 10020  97.7000  24.0000 0000000   0.0000 192.0000 14.98995063    11
CTC2_L_00537003-06
1 10021U 25422WS  26075.70048611  .00000000  00000+0  00000-0 0  9995
2 10021  97.7000  24.0000 0000000   0.0000 237.0000 14.98995063    12
CTC2_L_00537003-07
1 10022U 23765OK  26075.70048611  .00000000  00000+0  00000-0 0  9994
2 10022  97.7000  24.0000 0000000   0.0000 282.0000 14.98995063    13
CTC2_L_00537003-08
1 10023U 24655TR  26075.70048611  .00000000  00000+0  00000-0 0  9994
2 10023  97.7000  24.0000 0000000   0.0000 327.0000 14.98995063    14
CTC2_L_00537004-01
1 10024U 23980UL  26075.70048611  .00000000  00000+0  00000-0 0  9995
2 10024  97.7000  36.0000 0000000   0.0000  18.0000 14.98995063    15
CTC2_L_00537004-02
1 10025U 26090JJ  26075.70048611  .00000000  00000+0  00000-0 0  9991
2 10025  97.7000  36.0000 0000000   0.0000  63.0000 14.98995063    16
CTC2_L_00537004-03
1 10026U 22262TZ  26075.70048611  .00000000  00000+0  00000-0 0  9999
2 10026  97.7000  36.0000 0000000   0.0000 108.0000 14.98995063    17
CTC2_L_00537004-04
1 10027U 26024EX  26075.70048611  .00000000  00000+0  00000-0 0  9990
2 10027  97.7000  36.0000 0000000   0.0000 153.0000 14.98995063    18
CTC2_L_00537004-05
1 10028U 24489YE  26075.70048611  .00000000  00000+0  00000-0 0  9994
2 10028  97.7000  36.0000 0000000   0.0000 198.0000 14.98995063    18
CTC2_L_00537004-06
1 10029U 26014CE  26075.70048611  .00000000  00000+0  00000-0 0  9991
2 10029  97.7000  36.0000 0000000   0.0000 243.0000 14.98995063    10
CTC2_L_00537004-07
1 10030U 23831WH  26075.70048611  .00000000  00000+0  00000-0 0  9997
2 10030  97.7000  36.0000 0000000   0.0000 288.0000 14.98995063    11
CTC2_L_00537004-08
1 10031U 26397CS  26075.70048611  .00000000  00000+0  00000-0 0  9998
2 10031  97.7000  36.0000 0000000   0.0000 333.0000 14.98995063    13
CTC2_L_00537005-01
1 10032U 25744SR  26075.70048611  .00000000  00000+0  00000-0 0  9994
2 10032  97.7000  48.0000 0000000   0.0000  24.0000 14.98995063    14
CTC2_L_00537005-02
1 10033U 22018FP  26075.70048611  .00000000  00000+0  00000-0 0  9996
2 10033  97.7000  48.0000 0000000   0.0000  69.0000 14.98995063    14
CTC2_L_00537005-03
1 10034U 25526NI  26075.70048611  .00000000  00000+0  00000-0 0  9994
2 10034  97.7000  48.0000 0000000   0.0000 114.0000 14.98995063    16
CTC2_L_00537005-04
1 10035U 25364HV  26075.70048611  .00000000  00000+0  00000-0 0  9995
2 10035  97.7000  48.0000 0000000   0.0000 159.0000 14.98995063    16
CTC2_L_00537005-05
1 10036U 22766WR  26075.70048611  .00000000  00000+0  00000-0 0  9999
2 10036  97.7000  48.0000 0000000   0.0000 204.0000 14.98995063    18
CTC2_L_00537005-06
1 10037U 26645IS  26075.70048611  .00000000  00000+0  00000-0 0  9990
2 10037  97.7000  48.0000 0000000   0.0000 249.0000 14.98995063    18
CTC2_L_00537005-07
1 10038U 23546YW  26075.70048611  .00000000  00000+0  00000-0 0  9998
2 10038  97.7000  48.0000 0000000   0.0000 294.0000 14.98995063    19
CTC2_L_00537005-08
1 10039U 22006JS  26075.70048611  .00000000  00000+0  00000-0 0  9999
2 10039  97.7000  48.0000 0000000   0.0000 339.0000 14.98995063    10
CTC2_L_00537006-01
1 10040U 24067PU  26075.70048611  .00000000  00000+0  00000-0 0  9990
2 10040  97.7000  60.0000 0000000   0.0000  30.0000 14.98995063    14
CTC2_L_00537006-02
1 10041U 25426DG  26075.70048611  .00000000  00000+0  00000-0 0  9991
2 10041  97.7000  60.0000 0000000   0.0000  75.0000 14.98995063    14
CTC2_L_00537006-03
1 10042U 24317HH  26075.70048611  .00000000  00000+0  00000-0 0  9990
2 10042  97.7000  60.0000 0000000   0.0000 120.0000 14.98995063    16
CTC2_L_00537006-04
1 10043U 23218HD  26075.70048611  .00000000  00000+0  00000-0 0  9990
2 10043  97.7000  60.0000 0000000   0.0000 165.0000 14.98995063    16
CTC2_L_00537006-05
1 10044U 24075UH  26075.70048611  .00000000  00000+0  00000-0 0  9993
2 10044  97.7000  60.0000 0000000   0.0000 210.0000 14.98995063    18
CTC2_L_00537006-06
1 10045U 23735UP  26075.70048611  .00000000  00000+0  00000-0 0  9996
2 10045  97.7000  60.0000 0000000   0.0000 255.0000 14.98995063    18
CTC2_L_00537006-07
1 10046U 22002VU  26075.70048611  .00000000  00000+0  00000-0 0  9993
2 10046  97.7000  60.0000 0000000   0.0000 300.0000 14.98995063    10
CTC2_L_00537006-08
1 10047U 26950EK  26075.70048611  .00000000  00000+0  00000-0 0  9990
2 10047  97.7000  60.0000 0000000   0.0000 345.0000 14.98995063    10
CTC2_L_00537007-01
1 10048U 25432ND  26075.70048611  .00000000  00000+0  00000-0 0  9995
2 10048  97.7000  72.0000 0000000   0.0000  36.0000 14.98995063    11
CTC2_L_00537007-02
1 10049U 24055UX  26075.70048611  .00000000  00000+0  00000-0 0  9996
2 10049  97.7000  72.0000 0000000   0.0000  81.0000 14.98995063    12
CTC2_L_00537007-03
1 10050U 23667ZT  26075.70048611  .00000000  00000+0  00000-0 0  9996
2 10050  97.7000  72.0000 0000000   0.0000 126.0000 14.98995063    14
CTC2_L_00537007-04
1 10051U 26061DC  26075.70048611  .00000000  00000+0  00000-0 0  9998
2 10051  97.7000  72.0000 0000000   0.0000 171.0000 14.98995063    15
CTC2_L_00537007-05
1 10052U 22595RQ  26075.70048611  .00000000  00000+0  00000-0 0  9997
2 10052  97.7000  72.0000 0000000   0.0000 216.0000 14.98995063    16
CTC2_L_00537007-06
1 10053U 22619YY  26075.70048611  .00000000  00000+0  00000-0 0  9995
2 10053  97.7000  72.0000 0000000   0.0000 261.0000 14.98995063    17
CTC2_L_00537007-07
1 10054U 22128PE  26075.70048611  .00000000  00000+0  00000-0 0  9991
2 10054  97.7000  72.0000 0000000   0.0000 306.0000 14.98995063    18
CTC2_L_00537007-08
1 10055U 26646MM  26075.70048611  .00000000  00000+0  00000-0 0  9991
2 10055  97.7000  72.0000 0000000   0.0000 351.0000 14.98995063    19
CTC2_L_00537008-01
1 10056U 23996VF  26075.70048611  .00000000  00000+0  00000-0 0  9997
2 10056  97.7000  84.0000 0000000   0.0000  42.0000 14.98995063    10
CTC2_L_00537008-02
1 10057U 25037EK  26075.70048611  .00000000  00000+0  00000-0 0  9996
2 10057  97.7000  84.0000 0000000   0.0000  87.0000 14.98995063    10
CTC2_L_00537008-03
1 10058U 24235LL  26075.70048611  .00000000  00000+0  00000-0 0  9996
2 10058  97.7000  84.0000 0000000   0.0000 132.0000 14.98995063    12
CTC2_L_00537008-04
1 10059U 23221O   26075.70048611  .00000000  00000+0  00000-0 0  9991
2 10059  97.7000  84.0000 0000000   0.0000 177.0000 14.98995063    12
CTC2_L_00537008-05
1 10060U 24124MA  26075.70048611  .00000000  00000+0  00000-0 0  9996
2 10060  97.7000  84.0000 0000000   0.0000 222.0000 14.98995063    15
CTC2_L_00537008-06
1 10061U 24095WQ  26075.70048611  .00000000  00000+0  00000-0 0  9994
2 10061  97.7000  84.0000 0000000   0.0000 267.0000 14.98995063    15
